{
    "links": {
        "self": "http://www.neowsapp.com/rest/v1/neo/3639435?api_key=iIulBulltgU6a56xZRHN4H3l9WmuAYTsLGpBGhQ2"
    },
    "id": "3639435",
    "neo_reference_id": "3639435",
    "name": "(2013 KK6)",
    "designation": "2013 KK6",
    "nasa_jpl_url": "http://ssd.jpl.nasa.gov/sbdb.cgi?sstr=3639435",
    "absolute_magnitude_h": 23.4,
    "estimated_diameter": {
        "kilometers": {
            "estimated_diameter_min": 0.0555334912,
            "estimated_diameter_max": 0.1241766613
        },
        "meters": {
            "estimated_diameter_min": 55.5334911581,
            "estimated_diameter_max": 124.1766612574
        },
        "miles": {
            "estimated_diameter_min": 0.0345069009,
            "estimated_diameter_max": 0.0771597762
        },
        "feet": {
            "estimated_diameter_min": 182.1964991311,
            "estimated_diameter_max": 407.4037573197
        }
    },
    "is_potentially_hazardous_asteroid": false,
    "close_approach_data": [
        {
            "close_approach_date": "2013-06-10",
            "close_approach_date_full": "2013-Jun-10 08:34",
            "epoch_date_close_approach": 1370853240000,
            "relative_velocity": {
                "kilometers_per_second": "17.3503969416",
                "kilometers_per_hour": "62461.4289898806",
                "miles_per_hour": "38811.10291874"
            },
            "miss_distance": {
                "astronomical": "0.0588998686",
                "lunar": "22.9120488854",
                "kilometers": "8811294.885839882",
                "miles": "5475084.7590070916"
            },
            "orbiting_body": "Earth"
        }
    ],
    "orbital_data": {
        "orbit_id": "7",
        "orbit_determination_date": "2017-04-06 08:45:43",
        "first_observation_date": "2013-05-31",
        "last_observation_date": "2013-06-06",
        "data_arc_in_days": 6,
        "observations_used": 28,
        "orbit_uncertainty": "9",
        "minimum_orbit_intersection": ".0409906",
        "jupiter_tisserand_invariant": "3.283",
        "epoch_osculation": "2456445.5",
        "eccentricity": ".6842588217977933",
        "semi_major_axis": "2.233898413337493",
        "inclination": "3.845924755293642",
        "ascending_node_longitude": "113.0608793263342",
        "orbital_period": "1219.53299928399",
        "perihelion_distance": ".7053337170112201",
        "perihelion_argument": "218.2341808049352",
        "aphelion_distance": "3.762463109663765",
        "perihelion_time": "2456498.200997471669",
        "mean_anomaly": "344.4429309408275",
        "mean_motion": ".2951949641472291",
        "equinox": "J2000",
        "orbit_class": {
            "orbit_class_type": "APO",
            "orbit_class_description": "Near-Earth asteroid orbits which cross the Earth’s orbit similar to that of 1862 Apollo",
            "orbit_class_range": "a (semi-major axis) > 1.0 AU; q (perihelion) < 1.017 AU"
        }
    },
    "is_sentry_object": false
}